STARLINK-30503          
1 57975U 23151M   26068.17538174 -.00014007  00000+0 -50010-3 0  9995
2 57975  43.0027 339.2227 0002061 264.9376  95.1241 15.27599044135686
KUIPER-00209            
1 67776U 26030N   26068.61786546  .00035298  00000+0  11963-2 0  9997
2 67776  51.8838 220.0775 0012191  59.1967 301.0215 15.30161950  5077
