[{"OBJECT_NAME":"STARLINK-30503","OBJECT_ID":"2023-151M","EPOCH":"2026-03-09T04:12:32.982336","MEAN_MOTION":15.27599044,"ECCENTRICITY":0.00020611,"INCLINATION":43.0027,"RA_OF_ASC_NODE":339.2227,"ARG_OF_PERICENTER":264.9376,"MEAN_ANOMALY":95.1241,"EPHEMERIS_TYPE":0,"CLASSIFICATION_TYPE":"U","NORAD_CAT_ID":57975,"ELEMENT_SET_NO":999,"REV_AT_EPOCH":13568,"BSTAR":-0.0005000993,"MEAN_MOTION_DOT":-0.00014007,"MEAN_MOTION_DDOT":0},{"OBJECT_NAME":"KUIPER-00209","OBJECT_ID":"2026-030N","EPOCH":"2026-03-09T14:49:43.575744","MEAN_MOTION":15.3016195,"ECCENTRICITY":0.0012191,"INCLINATION":51.8838,"RA_OF_ASC_NODE":220.0775,"ARG_OF_PERICENTER":59.1967,"MEAN_ANOMALY":301.0215,"EPHEMERIS_TYPE":0,"CLASSIFICATION_TYPE":"U","NORAD_CAT_ID":67776,"ELEMENT_SET_NO":999,"REV_AT_EPOCH":507,"BSTAR":0.0011963,"MEAN_MOTION_DOT":0.00035298,"MEAN_MOTION_DDOT":0}]
